start=new Date('2021-09-27T00:00:00.000Z').valueOf();
sats=[{"TLE_LINE2":"2 46675  53.0558 337.4812 0000812  87.5633 272.5449 15.06410948 52656","CLASSIFICATION_TYPE":"U","EPHEMERIS_TYPE":"0","PERIOD":"95.591","EPOCH":"2021-09-26T11:29:40.779744","NORAD_CAT_ID":"46675","TLE_LINE1":"1 46675U 20073F   21269.47894421 -.00000123  00000-0  10618-4 0  9996","ELEMENT_SET_NO":"999","MEAN_MOTION_DOT":"-0.00000123","OBJECT_ID":"2020-073F","BSTAR":"0.00001061800000","MEAN_ANOMALY":"272.5449","COUNTRY_CODE":"US","RCS_SIZE":"LARGE","CENTER_NAME":"EARTH","INCLINATION":"53.0558","DECAY_DATE":null,"SEMIMAJOR_AXIS":"6925.315","OBJECT_TYPE":"PAYLOAD","PERIAPSIS":"546.618","ECCENTRICITY":"0.00008120","TIME_SYSTEM":"UTC","OBJECT_NAME":"STARLINK-1720","APOAPSIS":"547.742","RA_OF_ASC_NODE":"337.4812","SITE":"AFETR","FILE":"3129433","REV_AT_EPOCH":"5265","GP_ID":"185557279","ARG_OF_PERICENTER":"87.5633","MEAN_MOTION":"15.06410948","MEAN_ELEMENT_THEORY":"SGP4","MEAN_MOTION_DDOT":"0.0000000000000","LAUNCH_DATE":"2020-10-18","REF_FRAME":"TEME"},{"ARG_OF_PERICENTER":"52.2259","MEAN_MOTION_DDOT":"0.0000000000000","MEAN_ELEMENT_THEORY":"SGP4","MEAN_MOTION":"15.74697228","LAUNCH_DATE":"2020-10-18","REF_FRAME":"TEME","TLE_LINE1":"1 46676U 20073G   21269.34186702  .00184415  00000-0  12084-2 0  9992","MEAN_MOTION_DOT":"0.00184415","ELEMENT_SET_NO":"999","PERIOD":"91.446","EPHEMERIS_TYPE":"0","TLE_LINE2":"2 46676  53.0562 280.7283 0005426  52.2259 307.9251 15.74697228 53448","CLASSIFICATION_TYPE":"U","NORAD_CAT_ID":"46676","EPOCH":"2021-09-26T08:12:17.310528","INCLINATION":"53.0562","BSTAR":"0.00120840000000","OBJECT_ID":"2020-073G","CENTER_NAME":"EARTH","RCS_SIZE":"LARGE","MEAN_ANOMALY":"307.9251","COUNTRY_CODE":"US","ECCENTRICITY":"0.00054260","OBJECT_NAME":"STARLINK-1731","TIME_SYSTEM":"UTC","SEMIMAJOR_AXIS":"6723.630","OBJECT_TYPE":"PAYLOAD","DECAY_DATE":null,"PERIAPSIS":"341.847","GP_ID":"185557287","REV_AT_EPOCH":"5344","RA_OF_ASC_NODE":"280.7283","APOAPSIS":"349.143","FILE":"3129433","SITE":"AFETR"},{"GP_ID":"185557282","REV_AT_EPOCH":"5265","RA_OF_ASC_NODE":"337.5025","APOAPSIS":"547.912","SITE":"AFETR","FILE":"3129433","ECCENTRICITY":"0.00010080","OBJECT_NAME":"STARLINK-1766","TIME_SYSTEM":"UTC","OBJECT_TYPE":"PAYLOAD","SEMIMAJOR_AXIS":"6925.349","DECAY_DATE":null,"PERIAPSIS":"546.516","INCLINATION":"53.0551","OBJECT_ID":"2020-073H","BSTAR":"0.00003082400000","RCS_SIZE":"LARGE","CENTER_NAME":"EARTH","MEAN_ANOMALY":"242.4342","COUNTRY_CODE":"US","TLE_LINE1":"1 46677U 20073H   21269.47524757  .00000178  00000-0  30824-4 0  9990","MEAN_MOTION_DOT":"0.00000178","ELEMENT_SET_NO":"999","PERIOD":"95.592","TLE_LINE2":"2 46677  53.0551 337.5025 0001008 117.6750 242.4342 15.06399914 52658","CLASSIFICATION_TYPE":"U","EPHEMERIS_TYPE":"0","NORAD_CAT_ID":"46677","EPOCH":"2021-09-26T11:24:21.390048","LAUNCH_DATE":"2020-10-18","REF_FRAME":"TEME","MEAN_MOTION_DDOT":"0.0000000000000","MEAN_MOTION":"15.06399914","MEAN_ELEMENT_THEORY":"SGP4","ARG_OF_PERICENTER":"117.6750"},{"ARG_OF_PERICENTER":"104.3474","MEAN_MOTION_DDOT":"0.0000000000000","MEAN_ELEMENT_THEORY":"SGP4","MEAN_MOTION":"15.06390878","REF_FRAME":"TEME","LAUNCH_DATE":"2020-10-18","MEAN_MOTION_DOT":"0.00000094","ELEMENT_SET_NO":"999","TLE_LINE1":"1 46679U 20073K   21269.41444213  .00000094  00000-0  25250-4 0  9998","NORAD_CAT_ID":"46679","EPOCH":"2021-09-26T09:56:47.800032","PERIOD":"95.593","CLASSIFICATION_TYPE":"U","TLE_LINE2":"2 46679  53.0556 317.7472 0003660 104.3474 255.7921 15.06390878 52440","EPHEMERIS_TYPE":"0","INCLINATION":"53.0556","CENTER_NAME":"EARTH","RCS_SIZE":"LARGE","COUNTRY_CODE":"US","MEAN_ANOMALY":"255.7921","OBJECT_ID":"2020-073K","BSTAR":"0.00002525000000","TIME_SYSTEM":"UTC","OBJECT_NAME":"STARLINK-1773","ECCENTRICITY":"0.00036600","PERIAPSIS":"544.707","SEMIMAJOR_AXIS":"6925.377","OBJECT_TYPE":"PAYLOAD","DECAY_DATE":null,"GP_ID":"185551458","REV_AT_EPOCH":"5244","FILE":"3129258","SITE":"AFETR","RA_OF_ASC_NODE":"317.7472","APOAPSIS":"549.776"},{"PERIOD":"95.592","CLASSIFICATION_TYPE":"U","TLE_LINE2":"2 46680  53.0547 352.1514 0000938 115.5808 244.5278 15.06397299 51974","EPHEMERIS_TYPE":"0","NORAD_CAT_ID":"46680","EPOCH":"2021-09-26T13:11:11.246208","TLE_LINE1":"1 46680U 20073L   21269.54943572  .00001777  00000-0  13815-3 0  9998","MEAN_MOTION_DOT":"0.00001777","ELEMENT_SET_NO":"999","OBJECT_ID":"2020-073L","BSTAR":"0.00013815000000","RCS_SIZE":"LARGE","CENTER_NAME":"EARTH","COUNTRY_CODE":"US","MEAN_ANOMALY":"244.5278","INCLINATION":"53.0547","OBJECT_TYPE":"PAYLOAD","SEMIMAJOR_AXIS":"6925.357","DECAY_DATE":null,"PERIAPSIS":"546.572","ECCENTRICITY":"0.00009380","TIME_SYSTEM":"UTC","OBJECT_NAME":"STARLINK-1774","RA_OF_ASC_NODE":"352.1514","APOAPSIS":"547.871","SITE":"AFETR","FILE":"3129566","GP_ID":"185581855","REV_AT_EPOCH":"5197","ARG_OF_PERICENTER":"115.5808","MEAN_MOTION":"15.06397299","MEAN_ELEMENT_THEORY":"SGP4","MEAN_MOTION_DDOT":"0.0000000000000","LAUNCH_DATE":"2020-10-18","REF_FRAME":"TEME"},{"ELEMENT_SET_NO":"999","MEAN_MOTION_DOT":"0.00001865","TLE_LINE1":"1 46681U 20073M   21269.51993753  .00001865  00000-0  14398-3 0  9997","EPOCH":"2021-09-26T12:28:42.602592","NORAD_CAT_ID":"46681","CLASSIFICATION_TYPE":"U","TLE_LINE2":"2 46681  53.0565 352.2891 0001090 100.5945 259.5167 15.06415027 51962","EPHEMERIS_TYPE":"0","PERIOD":"95.591","INCLINATION":"53.0565","COUNTRY_CODE":"US","MEAN_ANOMALY":"259.5167","CENTER_NAME":"EARTH","RCS_SIZE":"LARGE","BSTAR":"0.00014398000000","OBJECT_ID":"2020-073M","OBJECT_NAME":"STARLINK-1775","TIME_SYSTEM":"UTC","ECCENTRICITY":"0.00010900","PERIAPSIS":"546.413","DECAY_DATE":null,"OBJECT_TYPE":"PAYLOAD","SEMIMAJOR_AXIS":"6925.303","REV_AT_EPOCH":"5196","GP_ID":"185550956","SITE":"AFETR","FILE":"3129258","APOAPSIS":"547.922","RA_OF_ASC_NODE":"352.2891","ARG_OF_PERICENTER":"100.5945","MEAN_MOTION_DDOT":"0.0000000000000","MEAN_MOTION":"15.06415027","MEAN_ELEMENT_THEORY":"SGP4","REF_FRAME":"TEME","LAUNCH_DATE":"2020-10-18"},{"REF_FRAME":"TEME","LAUNCH_DATE":"2020-10-18","MEAN_MOTION_DDOT":"0.0000000000000","MEAN_ELEMENT_THEORY":"SGP4","MEAN_MOTION":"15.06397772","ARG_OF_PERICENTER":"99.5564","REV_AT_EPOCH":"5197","GP_ID":"185582857","FILE":"3129566","SITE":"AFETR","APOAPSIS":"548.127","RA_OF_ASC_NODE":"352.1828","TIME_SYSTEM":"UTC","OBJECT_NAME":"STARLINK-1776","ECCENTRICITY":"0.00013090","PERIAPSIS":"546.314","DECAY_DATE":null,"OBJECT_TYPE":"PAYLOAD","SEMIMAJOR_AXIS":"6925.355","INCLINATION":"53.0547","MEAN_ANOMALY":"260.5573","COUNTRY_CODE":"US","RCS_SIZE":"LARGE","CENTER_NAME":"EARTH","BSTAR":"0.00020394000000","OBJECT_ID":"2020-073N","ELEMENT_SET_NO":"999","MEAN_MOTION_DOT":"0.00002757","TLE_LINE1":"1 46682U 20073N   21269.54574063  .00002757  00000-0  20394-3 0  9994","EPOCH":"2021-09-26T13:05:51.990432","NORAD_CAT_ID":"46682","TLE_LINE2":"2 46682  53.0547 352.1828 0001309  99.5564 260.5573 15.06397772 51979","CLASSIFICATION_TYPE":"U","EPHEMERIS_TYPE":"0","PERIOD":"95.592"},{"REF_FRAME":"TEME","LAUNCH_DATE":"2020-10-18","MEAN_ELEMENT_THEORY":"SGP4","MEAN_MOTION":"15.06408882","MEAN_MOTION_DDOT":"0.0000000000000","ARG_OF_PERICENTER":"96.7342","FILE":"3129258","SITE":"AFETR","RA_OF_ASC_NODE":"337.5360","APOAPSIS":"547.864","GP_ID":"185551958","REV_AT_EPOCH":"5217","PERIAPSIS":"546.509","SEMIMAJOR_AXIS":"6925.321","OBJECT_TYPE":"PAYLOAD","DECAY_DATE":null,"OBJECT_NAME":"STARLINK-1780","TIME_SYSTEM":"UTC","ECCENTRICITY":"0.00009780","CENTER_NAME":"EARTH","RCS_SIZE":"LARGE","MEAN_ANOMALY":"263.3758","COUNTRY_CODE":"US","OBJECT_ID":"2020-073Q","BSTAR":"0.00008846200000","INCLINATION":"53.0535","NORAD_CAT_ID":"46684","EPOCH":"2021-09-26T11:13:45.198336","PERIOD":"95.592","CLASSIFICATION_TYPE":"U","TLE_LINE2":"2 46684  53.0535 337.5360 0000978  96.7342 263.3758 15.06408882 52174","EPHEMERIS_TYPE":"0","MEAN_MOTION_DOT":"0.00001037","ELEMENT_SET_NO":"999","TLE_LINE1":"1 46684U 20073Q   21269.46788424  .00001037  00000-0  88462-4 0  9996"},{"MEAN_MOTION_DDOT":"0.0000000000000","MEAN_ELEMENT_THEORY":"SGP4","MEAN_MOTION":"15.06349326","REF_FRAME":"TEME","LAUNCH_DATE":"2020-10-18","ARG_OF_PERICENTER":"93.3756","OBJECT_NAME":"STARLINK-1781","TIME_SYSTEM":"UTC","ECCENTRICITY":"0.00018990","PERIAPSIS":"546.054","SEMIMAJOR_AXIS":"6925.504","OBJECT_TYPE":"PAYLOAD","DECAY_DATE":null,"GP_ID":"185557388","REV_AT_EPOCH":"5244","FILE":"3129440","SITE":"AFETR","RA_OF_ASC_NODE":"352.2573","APOAPSIS":"548.684","MEAN_MOTION_DOT":"0.00004207","ELEMENT_SET_NO":"999","TLE_LINE1":"1 46685U 20073R   21269.52362999  .00004207  00000-0  30156-3 0  9997","NORAD_CAT_ID":"46685","EPOCH":"2021-09-26T12:34:01.631136","PERIOD":"95.595","TLE_LINE2":"2 46685  53.0563 352.2573 0001899  93.3756 266.7450 15.06349326 52444","EPHEMERIS_TYPE":"0","CLASSIFICATION_TYPE":"U","INCLINATION":"53.0563","RCS_SIZE":"LARGE","CENTER_NAME":"EARTH","MEAN_ANOMALY":"266.7450","COUNTRY_CODE":"US","BSTAR":"0.00030156000000","OBJECT_ID":"2020-073R"},{"INCLINATION":"53.0563","RCS_SIZE":"LARGE","CENTER_NAME":"EARTH","MEAN_ANOMALY":"239.6484","COUNTRY_CODE":"US","OBJECT_ID":"2020-073S","BSTAR":"0.00005602900000","MEAN_MOTION_DOT":"0.00000553","ELEMENT_SET_NO":"999","TLE_LINE1":"1 46686U 20073S   21269.50519458  .00000553  00000-0  56029-4 0  9998","NORAD_CAT_ID":"46686","EPOCH":"2021-09-26T12:07:28.811712","PERIOD":"95.592","EPHEMERIS_TYPE":"0","TLE_LINE2":"2 46686  53.0563 352.3528 0001047 120.4608 239.6484 15.06401616 51962","CLASSIFICATION_TYPE":"U","GP_ID":"185550457","REV_AT_EPOCH":"5196","SITE":"AFETR","FILE":"3129258","RA_OF_ASC_NODE":"352.3528","APOAPSIS":"547.934","TIME_SYSTEM":"UTC","OBJECT_NAME":"STARLINK-1783","ECCENTRICITY":"0.00010470","PERIAPSIS":"546.484","OBJECT_TYPE":"PAYLOAD","SEMIMAJOR_AXIS":"6925.344","DECAY_DATE":null,"ARG_OF_PERICENTER":"120.4608","REF_FRAME":"TEME","LAUNCH_DATE":"2020-10-18","MEAN_MOTION_DDOT":"0.0000000000000","MEAN_ELEMENT_THEORY":"SGP4","MEAN_MOTION":"15.06401616"}];
